[{"OBJECT_NAME":"ASTROCAST-0402","OBJECT_ID":"2023-001DE","EPOCH":"2026-03-09T19:21:31.190400","MEAN_MOTION":15.26734153,"ECCENTRICITY":0.00042092,"INCLINATION":97.5556,"RA_OF_ASC_NODE":160.6821,"ARG_OF_PERICENTER":216.6984,"MEAN_ANOMALY":143.3966,"EPHEMERIS_TYPE":0,"CLASSIFICATION_TYPE":"U","NORAD_CAT_ID":55109,"ELEMENT_SET_NO":999,"REV_AT_EPOCH":12936,"BSTAR":0.00041835119,"MEAN_MOTION_DOT":0.0001093,"MEAN_MOTION_DDOT":0},{"OBJECT_NAME":"STARLINK-31881","OBJECT_ID":"2024-084F","EPOCH":"2026-03-09T06:32:49.494048","MEAN_MOTION":15.27592544,"ECCENTRICITY":9.972e-5,"INCLINATION":43.0039,"RA_OF_ASC_NODE":40.3268,"ARG_OF_PERICENTER":277.3177,"MEAN_ANOMALY":82.7561,"EPHEMERIS_TYPE":0,"CLASSIFICATION_TYPE":"U","NORAD_CAT_ID":59659,"ELEMENT_SET_NO":999,"REV_AT_EPOCH":10435,"BSTAR":-5.3394297e-5,"MEAN_MOTION_DOT":-1.732e-5,"MEAN_MOTION_DDOT":0}]
